[{"OBJECT_ID":"1976-077FP","OBJECT_NAME":"DELTA 1 DEB","NORAD_CAT_ID":"20088","OBJECT_TYPE":"DEBRIS","PERIOD":"117.407","INCLINATION":"102.0351","APOGEE":"1631.353","PERIGEE":"1497.380","ECCENTRICITY":"0.0084339","MEAN_MOTION":"12.26497781","TLE_LINE1":"1 20088U 76077FP  16238.96937359 -.00000010 +00000-0 +29145-3 0  9992","TLE_LINE2":"2 20088 102.0351 226.7327 0084339 291.4031 093.8344 12.26497781218096","LAUNCH_DATE":"1976-07-29","LAUNCH_SITE":"AIR FORCE WESTERN TEST RANGE","OWNER":"UNITED STATES OF AMERICA","ORBIT_TYPE":"Low Earth Orbit","OPERATIONAL_STATUS":"N/A, space debris"},{"OBJECT_ID":"1981-053MQ","OBJECT_NAME":"COSMOS 1275 DEB","NORAD_CAT_ID":"20089","OBJECT_TYPE":"DEBRIS","PERIOD":"102.886","INCLINATION":"82.7558","APOGEE":"930.269","PERIGEE":"860.047","ECCENTRICITY":"0.0048274","MEAN_MOTION":"13.9960693","TLE_LINE1":"1 20089U 81053MQ  16239.29049064  .00000677  00000-0  44799-3 0  9997","TLE_LINE2":"2 20089  82.7558 353.8175 0048274  93.5256 267.1437 13.99606930232264","LAUNCH_DATE":"1981-06-04","LAUNCH_SITE":"PLESETSK MISSILE AND SPACE COMPLEX","OWNER":"COMMONWEALTH OF INDEPENDENT STATES","ORBIT_TYPE":"Low Earth Orbit","OPERATIONAL_STATUS":"N/A, space debris"},{"OBJECT_ID":"1971-015DU","OBJECT_NAME":"COSMOS 397 DEB","NORAD_CAT_ID":"20090","OBJECT_TYPE":"DEBRIS","PERIOD":"103.480","INCLINATION":"65.6891","APOGEE":"1321.644","PERIGEE":"524.659","ECCENTRICITY":"0.0545784","MEAN_MOTION":"13.91565366","TLE_LINE1":"1 20090U 71015DU  16238.78737647  .00000613  00000-0  16739-3 0  9993","TLE_LINE2":"2 20090  65.6891   9.8739 0545784 304.2487 208.9206 13.91565366242858","LAUNCH_DATE":"1971-02-25","LAUNCH_SITE":"TYURATAM MISSILE AND SPACE COMPLEX","OWNER":"COMMONWEALTH OF INDEPENDENT STATES","ORBIT_TYPE":"Low Earth Orbit","OPERATIONAL_STATUS":"N/A, space debris"},{"OBJECT_ID":"1981-053MR","OBJECT_NAME":"COSMOS 1275 DEB","NORAD_CAT_ID":"20100","OBJECT_TYPE":"DEBRIS","PERIOD":"107.229","INCLINATION":"82.8906","APOGEE":"1227.508","PERIGEE":"969.404","ECCENTRICITY":"0.0172608","MEAN_MOTION":"13.42911227","TLE_LINE1":"1 20100U 81053MR  16239.27639039  .00000040  00000-0  39988-4 0  9995","TLE_LINE2":"2 20100  82.8906  79.8095 0172608 126.3073 355.5803 13.42911227374298","LAUNCH_DATE":"1981-06-04","LAUNCH_SITE":"PLESETSK MISSILE AND SPACE COMPLEX","OWNER":"COMMONWEALTH OF INDEPENDENT STATES","ORBIT_TYPE":"Low Earth Orbit","OPERATIONAL_STATUS":"N/A, space debris"},{"OBJECT_ID":"1965-108AC","OBJECT_NAME":"TITAN 3C TRANSTAGE DEB","NORAD_CAT_ID":"20102","OBJECT_TYPE":"DEBRIS","PERIOD":"524.198","INCLINATION":"26.6572","APOGEE":"29703.312","PERIGEE":"611.654","ECCENTRICITY":"0.6754312","MEAN_MOTION":"2.74705107","TLE_LINE1":"1 20102U 65108AC  16239.11133721 -.00000138  00000-0  25846-3 0  9996","TLE_LINE2":"2 20102  26.6572 172.2978 6754312 154.1976 354.2711  2.74705107221979","LAUNCH_DATE":"1965-12-21","LAUNCH_SITE":"AIR FORCE EASTERN TEST RANGE","OWNER":"UNITED STATES OF AMERICA","ORBIT_TYPE":"Highly Elliptical Orbit","OPERATIONAL_STATUS":"N/A, space debris"},{"OBJECT_ID":"1989-050A","OBJECT_NAME":"NADEZHDA 1","NORAD_CAT_ID":"20103","OBJECT_TYPE":"PAYLOAD","PERIOD":"104.762","INCLINATION":"82.9579","APOGEE":"1011.326","PERIGEE":"955.354","ECCENTRICITY":"0.0038017","MEAN_MOTION":"13.74533847","TLE_LINE1":"1 20103U 89050A   16238.92145366 +.00000050 +00000-0 +36216-4 0  9991","TLE_LINE2":"2 20103 082.9579 066.7735 0038017 021.2584 088.9500 13.74533847361299","LAUNCH_DATE":"1989-07-04","LAUNCH_SITE":"PLESETSK MISSILE AND SPACE COMPLEX","OWNER":"COMMONWEALTH OF INDEPENDENT STATES","ORBIT_TYPE":"Low Earth Orbit","OPERATIONAL_STATUS":"Nonoperational"},{"OBJECT_ID":"1989-050B","OBJECT_NAME":"SL-8 R/B","NORAD_CAT_ID":"20104","OBJECT_TYPE":"ROCKET BODY","PERIOD":"104.556","INCLINATION":"82.9551","APOGEE":"1004.854","PERIGEE":"942.492","ECCENTRICITY":"0.0042413","MEAN_MOTION":"13.77245912","TLE_LINE1":"1 20104U 89050B   16238.90297900 -.00000033 +00000-0 -47623-4 0  9999","TLE_LINE2":"2 20104 082.9551 031.0919 0042413 293.4062 176.5223 13.77245912363742","LAUNCH_DATE":"1989-07-04","LAUNCH_SITE":"PLESETSK MISSILE AND SPACE COMPLEX","OWNER":"COMMONWEALTH OF INDEPENDENT STATES","ORBIT_TYPE":"Low Earth Orbit","OPERATIONAL_STATUS":"N/A, derelict rocket body"},{"OBJECT_ID":"1989-052A","OBJECT_NAME":"GORIZONT 18","NORAD_CAT_ID":"20107","OBJECT_TYPE":"PAYLOAD","PERIOD":"1448.686","INCLINATION":"15.1374","APOGEE":"36196.849","PERIGEE":"35868.496","ECCENTRICITY":"0.0038711","MEAN_MOTION":"0.99400355","TLE_LINE1":"1 20107U 89052A   16239.47828015  .00000032  00000-0  00000+0 0  9994","TLE_LINE2":"2 20107  15.1374   5.1236 0038711 253.7458 101.5945  0.99400355 98809","LAUNCH_DATE":"1989-07-05","LAUNCH_SITE":"TYURATAM MISSILE AND SPACE COMPLEX","OWNER":"COMMONWEALTH OF INDEPENDENT STATES","ORBIT_TYPE":"Geosynchronous","OPERATIONAL_STATUS":"Nonoperational"},{"OBJECT_ID":"1989-052D","OBJECT_NAME":"SL-12 R/B(2)","NORAD_CAT_ID":"20110","OBJECT_TYPE":"ROCKET BODY","PERIOD":"1397.242","INCLINATION":"14.0073","APOGEE":"35163.639","PERIGEE":"34881.559","ECCENTRICITY":"0.0034067","MEAN_MOTION":"1.03060131","TLE_LINE1":"1 20110U 89052D   16238.25223494 -.00000132 +00000-0 +00000-0 0  9996","TLE_LINE2":"2 20110 014.0073 001.3132 0034067 177.6165 188.7697 01.03060131102064","LAUNCH_DATE":"1989-07-05","LAUNCH_SITE":"TYURATAM MISSILE AND SPACE COMPLEX","OWNER":"COMMONWEALTH OF INDEPENDENT STATES","ORBIT_TYPE":"Unclassified","OPERATIONAL_STATUS":"N/A, derelict rocket body"},{"OBJECT_ID":"1989-053A","OBJECT_NAME":"OLYMPUS 1","NORAD_CAT_ID":"20122","OBJECT_TYPE":"PAYLOAD","PERIOD":"1420.495","INCLINATION":"14.8645","APOGEE":"35548.636","PERIGEE":"35412.670","ECCENTRICITY":"0.0016241","MEAN_MOTION":"1.01373111","TLE_LINE1":"1 20122U 89053A   16238.91372721 -.00000337 +00000-0 +00000-0 0  9998","TLE_LINE2":"2 20122 014.8645 006.5382 0016241 227.8862 171.6564 01.01373111084550","LAUNCH_DATE":"1989-07-12","LAUNCH_SITE":"FRENCH GUIANA","OWNER":"EUROPEAN SPACE AGENCY","ORBIT_TYPE":"Unclassified","OPERATIONAL_STATUS":"Nonoperational"},{"OBJECT_ID":"1988-063E","OBJECT_NAME":"ARIANE 3 DEB","NORAD_CAT_ID":"20127","OBJECT_TYPE":"DEBRIS","PERIOD":"616.899","INCLINATION":"7.6215","APOGEE":"34846.950","PERIGEE":"406.955","ECCENTRICITY":"0.7173478","MEAN_MOTION":"2.33425237","TLE_LINE1":"1 20127U 88063E   16238.51924258 -.00000117 +00000-0 +20507-3 0  9990","TLE_LINE2":"2 20127 007.6215 281.2691 7173478 034.4932 355.8880 02.33425237235015","LAUNCH_DATE":"1988-07-21","LAUNCH_SITE":"FRENCH GUIANA","OWNER":"FRANCE","ORBIT_TYPE":"Highly Elliptical Orbit","OPERATIONAL_STATUS":"N/A, space debris"},{"OBJECT_ID":"1989-080E","OBJECT_NAME":"SL-14 DEB","NORAD_CAT_ID":"20129","OBJECT_TYPE":"DEBRIS","PERIOD":"112.221","INCLINATION":"82.5101","APOGEE":"2106.531","PERIGEE":"550.888","ECCENTRICITY":"0.1009261","MEAN_MOTION":"12.83180742","TLE_LINE1":"1 20129U 89080E   16239.45869091  .00000171  00000-0  63792-4 0  9992","TLE_LINE2":"2 20129  82.5101   6.5262 1009261   7.4221  52.7991 12.83180742242062","LAUNCH_DATE":"1989-09-28","LAUNCH_SITE":"PLESETSK MISSILE AND SPACE COMPLEX","OWNER":"COMMONWEALTH OF INDEPENDENT STATES","ORBIT_TYPE":"Low Earth Orbit","OPERATIONAL_STATUS":"N/A, space debris"},{"OBJECT_ID":"1965-027BD","OBJECT_NAME":"OPS 4682 DEB","NORAD_CAT_ID":"20131","OBJECT_TYPE":"DEBRIS","PERIOD":"110.935","INCLINATION":"90.2969","APOGEE":"1297.246","PERIGEE":"1242.205","ECCENTRICITY":"0.0035985","MEAN_MOTION":"12.98054109","TLE_LINE1":"1 20131U 65027BD  16236.09665970  .00000555  00000-0  18645-2 0  9998","TLE_LINE2":"2 20131  90.2969 273.5500 0035985  74.8396 315.0143 12.98054109299537","LAUNCH_DATE":"1965-04-03","LAUNCH_SITE":"AIR FORCE WESTERN TEST RANGE","OWNER":"UNITED STATES OF AMERICA","ORBIT_TYPE":"Low Earth Orbit","OPERATIONAL_STATUS":"N/A, space debris"},{"OBJECT_ID":"1989-059A","OBJECT_NAME":"COSMOS 2034","NORAD_CAT_ID":"20149","OBJECT_TYPE":"PAYLOAD","PERIOD":"104.848","INCLINATION":"82.9445","APOGEE":"1011.257","PERIGEE":"963.435","ECCENTRICITY":"0.0032464","MEAN_MOTION":"13.73412674","TLE_LINE1":"1 20149U 89059A   16238.89066769 +.00000024 +00000-0 +96163-5 0  9994","TLE_LINE2":"2 20149 082.9445 342.3991 0032464 131.0003 008.3395 13.73412674357380","LAUNCH_DATE":"1989-07-25","LAUNCH_SITE":"PLESETSK MISSILE AND SPACE COMPLEX","OWNER":"COMMONWEALTH OF INDEPENDENT STATES","ORBIT_TYPE":"Low Earth Orbit","OPERATIONAL_STATUS":"Unknown"},{"OBJECT_ID":"1989-059B","OBJECT_NAME":"SL-8 R/B","NORAD_CAT_ID":"20150","OBJECT_TYPE":"ROCKET BODY","PERIOD":"104.680","INCLINATION":"82.9417","APOGEE":"1001.188","PERIGEE":"957.746","ECCENTRICITY":"0.0029522","MEAN_MOTION":"13.75619277","TLE_LINE1":"1 20150U 89059B   16238.85957880 +.00000040 +00000-0 +25164-4 0  9995","TLE_LINE2":"2 20150 082.9417 313.1799 0029522 029.7521 107.4308 13.75619277359570","LAUNCH_DATE":"1989-07-25","LAUNCH_SITE":"PLESETSK MISSILE AND SPACE COMPLEX","OWNER":"COMMONWEALTH OF INDEPENDENT STATES","ORBIT_TYPE":"Low Earth Orbit","OPERATIONAL_STATUS":"N/A, derelict rocket body"},{"OBJECT_ID":"1989-062A","OBJECT_NAME":"TVSAT 2","NORAD_CAT_ID":"20168","OBJECT_TYPE":"PAYLOAD","PERIOD":"1442.247","INCLINATION":"13.9372","APOGEE":"35946.855","PERIGEE":"35866.936","ECCENTRICITY":"0.000945","MEAN_MOTION":"0.99844186","TLE_LINE1":"1 20168U 89062A   16238.33251024 -.00000240 +00000-0 +00000-0 0  9999","TLE_LINE2":"2 20168 013.9372 026.8036 0009450 159.3466 192.4140 00.99844186098727","LAUNCH_DATE":"1989-08-08","LAUNCH_SITE":"FRENCH GUIANA","OWNER":"GERMANY","ORBIT_TYPE":"Geosynchronous","OPERATIONAL_STATUS":"Unknown"}]